*******************************************************************************
Ephemeris / WWW_USER Mon Jul 15 19:24:27 2024 Pasadena, USA      / Horizons    
*******************************************************************************
Target body name: (2018 RB1)                      {source: JPL#5}
Center body name: Earth (399)                     {source: DE441}
Center-site name: Gemini South Obs., Cerro Pachon
*******************************************************************************
Start time      : A.D. 2018-Nov-12 23:23:00.0000 UT      
Stop  time      : A.D. 2018-Nov-13 09:30:00.0000 UT      
Step-size       : 1 minutes
*******************************************************************************
Target pole/equ : undefined
Target radii    : undefined                                                    
Center geodetic : 289.2634, -30.2406227, 2.71233  {E-lon(deg),Lat(deg),Alt(km)}
Center cylindric: 289.2634,5517.21435,-3194.81213 {E-lon(deg),Dxy(km),Dz(km)}
Center pole/equ : ITRF93                          {East-longitude positive}
Center radii    : 6378.137, 6378.137, 6356.752 km {Equator_a, b, pole_c}       
Target primary  : Sun
Vis. interferer : MOON (R_eq= 1737.400) km        {source: DE441}
Rel. light bend : Sun                             {source: DE441}
Rel. lght bnd GM: 1.3271E+11 km^3/s^2                                          
Small-body perts: Yes                             {source: SB441-N16}
Atmos refraction: NO (AIRLESS)
RA format       : HMS
Time format     : CAL 
Calendar mode   : Mixed Julian/Gregorian
RTS-only print  : NO       
EOP file        : eop.240715.p241008                                           
EOP coverage    : DATA-BASED 1962-JAN-20 TO 2024-JUL-15. PREDICTS-> 2024-OCT-07
Units conversion: 1 au= 149597870.700 km, c= 299792.458 km/s, 1 day= 86400.0 s 
Table cut-offs 1: Elevation (-90.0deg=NO ),Airmass (>38.000=NO), Daylight (YES)
Table cut-offs 2: Solar elongation (  0.0,180.0=NO ),Local Hour Angle( 0.0=NO )
Table cut-offs 3: RA/DEC angular rate (     0.0=NO )                           
*******************************************************************************
Initial IAU76/J2000 heliocentric ecliptic osculating elements (au, days, deg.):
  EPOCH=  2458368.5 ! 2018-Sep-07.00 (TDB)         Residual RMS= .299          
   EC= .2816093255492492   QR= .7991213126369837   TP= 2458438.7854507864      
   OM= 166.9631715555783   W=  267.8210074013559   IN= 5.127543488636634       
  Equivalent ICRF heliocentric cartesian coordinates (au, au/d):
   X= 9.883258176612897E-01  Y=-2.654573099408967E-01  Z=-1.095366816313374E-01
  VX= 1.112505236628486E-04 VY= 1.667631342697191E-02 VZ= 5.559084906068471E-03
Asteroid physical parameters (km, seconds, rotational period in hours):        
   GM= n.a.                RAD= n.a.               ROTPER= n.a.                
   H= 27.9                 G= .150                 B-V= n.a.                   
                           ALBEDO= n.a.            STYP= n.a.                  
*******************************************************************************
 Date__(UT)__HR:MN     R.A._________(ICRF)_________DEC
******************************************************
$$SOE
 2018-Nov-13 03:29  m  11 48 55.401526 -10 59 46.70628
 2018-Nov-13 03:30  m  11 48 55.504776 -10 59 46.85098
 2018-Nov-13 03:31  m  11 48 55.608011 -10 59 46.99575
 2018-Nov-13 03:32  m  11 48 55.711231 -10 59 47.14058
 2018-Nov-13 03:33  m  11 48 55.814435 -10 59 47.28549
 2018-Nov-13 03:34  m  11 48 55.917624 -10 59 47.43046
 2018-Nov-13 03:35  m  11 48 56.020796 -10 59 47.57550
 2018-Nov-13 03:36  m  11 48 56.123953 -10 59 47.72061
 2018-Nov-13 03:37  m  11 48 56.227094 -10 59 47.86579
 2018-Nov-13 03:38  m  11 48 56.330219 -10 59 48.01104
 2018-Nov-13 03:39  m  11 48 56.433328 -10 59 48.15636
 2018-Nov-13 03:40  m  11 48 56.536420 -10 59 48.30174
 2018-Nov-13 03:41  m  11 48 56.639496 -10 59 48.44719
 2018-Nov-13 03:42  m  11 48 56.742556 -10 59 48.59271
 2018-Nov-13 03:43  m  11 48 56.845600 -10 59 48.73830
 2018-Nov-13 03:44  m  11 48 56.948626 -10 59 48.88395
 2018-Nov-13 03:45  m  11 48 57.051636 -10 59 49.02967
 2018-Nov-13 03:46  m  11 48 57.154630 -10 59 49.17546
 2018-Nov-13 03:47  m  11 48 57.257606 -10 59 49.32131
 2018-Nov-13 03:48  m  11 48 57.360565 -10 59 49.46723
 2018-Nov-13 03:49  m  11 48 57.463508 -10 59 49.61321
 2018-Nov-13 03:50  m  11 48 57.566433 -10 59 49.75926
 2018-Nov-13 03:51  m  11 48 57.669341 -10 59 49.90538
 2018-Nov-13 03:52  m  11 48 57.772232 -10 59 50.05156
 2018-Nov-13 03:53  m  11 48 57.875105 -10 59 50.19780
 2018-Nov-13 03:54  m  11 48 57.977961 -10 59 50.34411
 2018-Nov-13 03:55  m  11 48 58.080799 -10 59 50.49049
 2018-Nov-13 03:56  m  11 48 58.183620 -10 59 50.63693
 2018-Nov-13 03:57  m  11 48 58.286423 -10 59 50.78343
 2018-Nov-13 03:58     11 48 58.389208 -10 59 50.93000
 2018-Nov-13 03:59     11 48 58.491975 -10 59 51.07663
 2018-Nov-13 04:00     11 48 58.594724 -10 59 51.22332
 2018-Nov-13 04:01     11 48 58.697455 -10 59 51.37008
 2018-Nov-13 04:02     11 48 58.800168 -10 59 51.51690
 2018-Nov-13 04:03     11 48 58.902863 -10 59 51.66378
 2018-Nov-13 04:04     11 48 59.005539 -10 59 51.81072
 2018-Nov-13 04:05     11 48 59.108197 -10 59 51.95773
 2018-Nov-13 04:06     11 48 59.210836 -10 59 52.10480
 2018-Nov-13 04:07     11 48 59.313457 -10 59 52.25193
 2018-Nov-13 04:08     11 48 59.416059 -10 59 52.39912
 2018-Nov-13 04:09     11 48 59.518642 -10 59 52.54637
 2018-Nov-13 04:10     11 48 59.621207 -10 59 52.69369
 2018-Nov-13 04:11     11 48 59.723752 -10 59 52.84106
 2018-Nov-13 04:12     11 48 59.826279 -10 59 52.98849
 2018-Nov-13 04:13     11 48 59.928787 -10 59 53.13599
 2018-Nov-13 04:14     11 49 00.031275 -10 59 53.28354
 2018-Nov-13 04:15     11 49 00.133744 -10 59 53.43116
 2018-Nov-13 04:16     11 49 00.236194 -10 59 53.57883
 2018-Nov-13 04:17     11 49 00.338624 -10 59 53.72656
 2018-Nov-13 04:18     11 49 00.441035 -10 59 53.87436
 2018-Nov-13 04:19     11 49 00.543426 -10 59 54.02221
 2018-Nov-13 04:20     11 49 00.645798 -10 59 54.17012
 2018-Nov-13 04:21     11 49 00.748150 -10 59 54.31808
 2018-Nov-13 04:22     11 49 00.850482 -10 59 54.46611
 2018-Nov-13 04:23     11 49 00.952795 -10 59 54.61419
 2018-Nov-13 04:24     11 49 01.055087 -10 59 54.76233
 2018-Nov-13 04:25     11 49 01.157360 -10 59 54.91053
 2018-Nov-13 04:26     11 49 01.259612 -10 59 55.05878
 2018-Nov-13 04:27     11 49 01.361844 -10 59 55.20709
 2018-Nov-13 04:28     11 49 01.464056 -10 59 55.35546
 2018-Nov-13 04:29     11 49 01.566247 -10 59 55.50388
 2018-Nov-13 04:30     11 49 01.668419 -10 59 55.65236
 2018-Nov-13 04:31     11 49 01.770569 -10 59 55.80090
 2018-Nov-13 04:32     11 49 01.872700 -10 59 55.94949
 2018-Nov-13 04:33     11 49 01.974809 -10 59 56.09813
 2018-Nov-13 04:34     11 49 02.076898 -10 59 56.24683
 2018-Nov-13 04:35     11 49 02.178966 -10 59 56.39558
 2018-Nov-13 04:36     11 49 02.281013 -10 59 56.54439
 2018-Nov-13 04:37     11 49 02.383040 -10 59 56.69325
 2018-Nov-13 04:38     11 49 02.485045 -10 59 56.84217
 2018-Nov-13 04:39     11 49 02.587030 -10 59 56.99114
 2018-Nov-13 04:40     11 49 02.688993 -10 59 57.14016
 2018-Nov-13 04:41     11 49 02.790935 -10 59 57.28923
 2018-Nov-13 04:42     11 49 02.892856 -10 59 57.43836
 2018-Nov-13 04:43     11 49 02.994756 -10 59 57.58754
 2018-Nov-13 04:44     11 49 03.096634 -10 59 57.73677
 2018-Nov-13 04:45     11 49 03.198491 -10 59 57.88606
 2018-Nov-13 04:46     11 49 03.300326 -10 59 58.03539
 2018-Nov-13 04:47     11 49 03.402139 -10 59 58.18478
 2018-Nov-13 04:48     11 49 03.503931 -10 59 58.33422
 2018-Nov-13 04:49     11 49 03.605702 -10 59 58.48370
 2018-Nov-13 04:50     11 49 03.707450 -10 59 58.63324
 2018-Nov-13 04:51     11 49 03.809177 -10 59 58.78283
 2018-Nov-13 04:52     11 49 03.910882 -10 59 58.93247
 2018-Nov-13 04:53     11 49 04.012564 -10 59 59.08215
 2018-Nov-13 04:54     11 49 04.114225 -10 59 59.23189
 2018-Nov-13 04:55     11 49 04.215864 -10 59 59.38168
 2018-Nov-13 04:56     11 49 04.317480 -10 59 59.53151
 2018-Nov-13 04:57     11 49 04.419074 -10 59 59.68139
 2018-Nov-13 04:58     11 49 04.520646 -10 59 59.83132
 2018-Nov-13 04:59     11 49 04.622196 -10 59 59.98130
 2018-Nov-13 05:00     11 49 04.723723 -11 00 00.13133
 2018-Nov-13 05:01     11 49 04.825228 -11 00 00.28140
 2018-Nov-13 05:02     11 49 04.926710 -11 00 00.43152
 2018-Nov-13 05:03     11 49 05.028170 -11 00 00.58169
 2018-Nov-13 05:04     11 49 05.129607 -11 00 00.73190
 2018-Nov-13 05:05     11 49 05.231021 -11 00 00.88216
 2018-Nov-13 05:06     11 49 05.332412 -11 00 01.03246
 2018-Nov-13 05:07     11 49 05.433781 -11 00 01.18281
 2018-Nov-13 05:08     11 49 05.535127 -11 00 01.33321
 2018-Nov-13 05:09     11 49 05.636449 -11 00 01.48365
 2018-Nov-13 05:10     11 49 05.737749 -11 00 01.63413
 2018-Nov-13 05:11     11 49 05.839026 -11 00 01.78466
 2018-Nov-13 05:12     11 49 05.940280 -11 00 01.93523
 2018-Nov-13 05:13     11 49 06.041510 -11 00 02.08585
 2018-Nov-13 05:14     11 49 06.142717 -11 00 02.23651
 2018-Nov-13 05:15     11 49 06.243901 -11 00 02.38721
 2018-Nov-13 05:16     11 49 06.345062 -11 00 02.53796
 2018-Nov-13 05:17     11 49 06.446199 -11 00 02.68874
 2018-Nov-13 05:18     11 49 06.547313 -11 00 02.83957
 2018-Nov-13 05:19     11 49 06.648404 -11 00 02.99045
 2018-Nov-13 05:20     11 49 06.749470 -11 00 03.14136
 2018-Nov-13 05:21     11 49 06.850514 -11 00 03.29231
 2018-Nov-13 05:22     11 49 06.951533 -11 00 03.44331
 2018-Nov-13 05:23     11 49 07.052529 -11 00 03.59434
 2018-Nov-13 05:24     11 49 07.153501 -11 00 03.74542
 2018-Nov-13 05:25     11 49 07.254450 -11 00 03.89654
 2018-Nov-13 05:26     11 49 07.355374 -11 00 04.04769
 2018-Nov-13 05:27     11 49 07.456275 -11 00 04.19889
 2018-Nov-13 05:28     11 49 07.557152 -11 00 04.35012
 2018-Nov-13 05:29     11 49 07.658004 -11 00 04.50140
 2018-Nov-13 05:30     11 49 07.758833 -11 00 04.65271
 2018-Nov-13 05:31     11 49 07.859638 -11 00 04.80406
